/* List of satellites to show: ISS + a few sample Starlink sats */
export const TLE_LIST: [string, string][] = [
  // ISS
  [
    "1 25544U 98067A   25140.43166667  .00016717  00000+0  10270-3 0  9997",
    "2 25544  51.6444  22.7332 0003643  46.9050   7.5185 15.49594111445576",
  ],
  // STARLINK-30000 (dummy TLE example)
  [
    "1 70000U 23000A   25140.35000000  .00005300  00000+0  10000-3 0  9996",
    "2 70000  53.0000 222.0000 0001200   0.0000  90.0000 15.00000000    04",
  ],
  // NOAA 15
  [
    "1 25338U 98030A   25140.39097223  .00000079  00000+0  70891-4 0  9992",
    "2 25338  98.7036 169.2466 0011424 193.2015 166.8760 14.25842724203160",
  ],
];